ONEWEB-0371             
1 49297U 21090U   24191.74336894  .00000047  00000+0  84873-4 0  9998
2 49297  87.9144  85.7337 0001879  73.4698 286.6641 13.19725805133147
ONEWEB-0372             
1 49298U 21090V   24191.66866410 -.00000026  00000+0 -95963-4 0  9993
2 49298  87.9195  55.2098 0001866  78.2338 281.9005 13.20772996136443
ONEWEB-0373             
1 49299U 21090W   24191.69564115  .00000012  00000+0 -28828-5 0  9995
2 49299  87.9193  55.2204 0002159  86.4495 273.6885 13.20771960137638
ONEWEB-0374             
1 49300U 21090X   24191.75615690  .00000014  00000+0  32309-5 0  9990
2 49300  87.8949  70.4407 0001963  80.0001 280.1350 13.14503733134628
ONEWEB-0375             
1 49301U 21090Y   24191.68302292  .00000594  00000+0  14297-2 0  9990
2 49301  87.9190  55.1990 0002091 102.9354 257.2013 13.20766393137133
ONEWEB-0376             
1 49302U 21090Z   24191.74177751 -.00000103  00000+0 -29016-3 0  9992
2 49302  87.9137  85.7410 0002068  70.6732 289.4624 13.19727315133147
ONEWEB-0377             
1 49303U 21090AA  24191.66894380 -.00000035  00000+0 -11848-3 0  9996
2 49303  87.9195  55.1936 0001585  84.9118 275.2196 13.20772291137129
ONEWEB-0378             
1 49304U 21090AB  24191.69103013  .00000003  00000+0 -24050-4 0  9990
2 49304  87.9196  55.1923 0001894  86.2272 273.9078 13.20773555136392
